[
  {
    "name": "Afghanistan",
    "flag": "ğŸ‡¦ğŸ‡«",
    "code": "AF",
    "dial_code": "+93"
  },
  {
    "name": "Ã…land Islands",
    "flag": "ğŸ‡¦ğŸ‡½",
    "code": "AX",
    "dial_code": "+358"
  },
  {
    "name": "Albania",
    "flag": "ğŸ‡¦ğŸ‡±",
    "code": "AL",
    "dial_code": "+355"
  },
  {
    "name": "Algeria",
    "flag": "ğŸ‡©ğŸ‡¿",
    "code": "DZ",
    "dial_code": "+213"
  },
  {
    "name": "American Samoa",
    "flag": "ğŸ‡¦ğŸ‡¸",
    "code": "AS",
    "dial_code": "+1684"
  },
  {
    "name": "Andorra",
    "flag": "ğŸ‡¦ğŸ‡©",
    "code": "AD",
    "dial_code": "+376"
  },
  {
    "name": "Angola",
    "flag": "ğŸ‡¦ğŸ‡´",
    "code": "AO",
    "dial_code": "+244"
  },
  {
    "name": "Anguilla",
    "flag": "ğŸ‡¦ğŸ‡®",
    "code": "AI",
    "dial_code": "+1264"
  },
  {
    "name": "Antarctica",
    "flag": "ğŸ‡¦ğŸ‡¶",
    "code": "AQ",
    "dial_code": "+672"
  },
  {
    "name": "Antigua and Barbuda",
    "flag": "ğŸ‡¦ğŸ‡¬",
    "code": "AG",
    "dial_code": "+1268"
  },
  {
    "name": "Argentina",
    "flag": "ğŸ‡¦ğŸ‡·",
    "code": "AR",
    "dial_code": "+54"
  },
  {
    "name": "Armenia",
    "flag": "ğŸ‡¦ğŸ‡²",
    "code": "AM",
    "dial_code": "+374"
  },
  {
    "name": "Aruba",
    "flag": "ğŸ‡¦ğŸ‡¼",
    "code": "AW",
    "dial_code": "+297"
  },
  {
    "name": "Australia",
    "flag": "ğŸ‡¦ğŸ‡º",
    "code": "AU",
    "dial_code": "+61"
  },
  {
    "name": "Austria",
    "flag": "ğŸ‡¦ğŸ‡¹",
    "code": "AT",
    "dial_code": "+43"
  },
  {
    "name": "Azerbaijan",
    "flag": "ğŸ‡¦ğŸ‡¿",
    "code": "AZ",
    "dial_code": "+994"
  },
  {
    "name": "Bahamas",
    "flag": "ğŸ‡§ğŸ‡¸",
    "code": "BS",
    "dial_code": "+1242"
  },
  {
    "name": "Bahrain",
    "flag": "ğŸ‡§ğŸ‡­",
    "code": "BH",
    "dial_code": "+973"
  },
  {
    "name": "Bangladesh",
    "flag": "ğŸ‡§ğŸ‡©",
    "code": "BD",
    "dial_code": "+880"
  },
  {
    "name": "Barbados",
    "flag": "ğŸ‡§ğŸ‡§",
    "code": "BB",
    "dial_code": "+1246"
  },
  {
    "name": "Belarus",
    "flag": "ğŸ‡§ğŸ‡¾",
    "code": "BY",
    "dial_code": "+375"
  },
  {
    "name": "Belgium",
    "flag": "ğŸ‡§ğŸ‡ª",
    "code": "BE",
    "dial_code": "+32"
  },
  {
    "name": "Belize",
    "flag": "ğŸ‡§ğŸ‡¿",
    "code": "BZ",
    "dial_code": "+501"
  },
  {
    "name": "Benin",
    "flag": "ğŸ‡§ğŸ‡¯",
    "code": "BJ",
    "dial_code": "+229"
  },
  {
    "name": "Bermuda",
    "flag": "ğŸ‡§ğŸ‡²",
    "code": "BM",
    "dial_code": "+1441"
  },
  {
    "name": "Bhutan",
    "flag": "ğŸ‡§ğŸ‡¹",
    "code": "BT",
    "dial_code": "+975"
  },
  {
    "name": "Bolivia",
    "flag": "ğŸ‡§ğŸ‡´",
    "code": "BO",
    "dial_code": "+591"
  },
  {
    "name": "Bosnia and Herzegovina",
    "flag": "ğŸ‡§ğŸ‡¦",
    "code": "BA",
    "dial_code": "+387"
  },
  {
    "name": "Botswana",
    "flag": "ğŸ‡§ğŸ‡¼",
    "code": "BW",
    "dial_code": "+267"
  },
  {
    "name": "Bouvet Island",
    "flag": "ğŸ‡§ğŸ‡»",
    "code": "BV",
    "dial_code": "+47"
  },
  {
    "name": "Brazil",
    "flag": "ğŸ‡§ğŸ‡·",
    "code": "BR",
    "dial_code": "+55"
  },
  {
    "name": "British Indian Ocean Territory",
    "flag": "ğŸ‡®ğŸ‡´",
    "code": "IO",
    "dial_code": "+246"
  },
  {
    "name": "Brunei Darussalam",
    "flag": "ğŸ‡§ğŸ‡³",
    "code": "BN",
    "dial_code": "+673"
  },
  {
    "name": "Bulgaria",
    "flag": "ğŸ‡§ğŸ‡¬",
    "code": "BG",
    "dial_code": "+359"
  },
  {
    "name": "Burkina Faso",
    "flag": "ğŸ‡§ğŸ‡«",
    "code": "BF",
    "dial_code": "+226"
  },
  {
    "name": "Burundi",
    "flag": "ğŸ‡§ğŸ‡®",
    "code": "BI",
    "dial_code": "+257"
  },
  {
    "name": "Cambodia",
    "flag": "ğŸ‡°ğŸ‡­",
    "code": "KH",
    "dial_code": "+855"
  },
  {
    "name": "Cameroon",
    "flag": "ğŸ‡¨ğŸ‡²",
    "code": "CM",
    "dial_code": "+237"
  },
  {
    "name": "Canada",
    "flag": "ğŸ‡¨ğŸ‡¦",
    "code": "CA",
    "dial_code": "+1"
  },
  {
    "name": "Cape Verde",
    "flag": "ğŸ‡¨ğŸ‡»",
    "code": "CV",
    "dial_code": "+238"
  },
  {
    "name": "Cayman Islands",
    "flag": "ğŸ‡°ğŸ‡¾",
    "code": "KY",
    "dial_code": "+1345"
  },
  {
    "name": "Central African Republic",
    "flag": "ğŸ‡¨ğŸ‡«",
    "code": "CF",
    "dial_code": "+236"
  },
  {
    "name": "Chad",
    "flag": "ğŸ‡¹ğŸ‡©",
    "code": "TD",
    "dial_code": "+235"
  },
  {
    "name": "Chile",
    "flag": "ğŸ‡¨ğŸ‡±",
    "code": "CL",
    "dial_code": "+56"
  },
  {
    "name": "China",
    "flag": "ğŸ‡¨ğŸ‡³",
    "code": "CN",
    "dial_code": "+86"
  },
  {
    "name": "Christmas Island",
    "flag": "ğŸ‡¨ğŸ‡½",
    "code": "CX",
    "dial_code": "+61"
  },
  {
    "name": "Cocos (Keeling) Islands",
    "flag": "ğŸ‡¨ğŸ‡¨",
    "code": "CC",
    "dial_code": "+61"
  },
  {
    "name": "Colombia",
    "flag": "ğŸ‡¨ğŸ‡´",
    "code": "CO",
    "dial_code": "+57"
  },
  {
    "name": "Comoros",
    "flag": "ğŸ‡°ğŸ‡²",
    "code": "KM",
    "dial_code": "+269"
  },
  {
    "name": "Congo",
    "flag": "ğŸ‡¨ğŸ‡¬",
    "code": "CG",
    "dial_code": "+242"
  },
  {
    "name": "Congo, The Democratic Republic of the Congo",
    "flag": "ğŸ‡¨ğŸ‡©",
    "code": "CD",
    "dial_code": "+243"
  },
  {
    "name": "Cook Islands",
    "flag": "ğŸ‡¨ğŸ‡°",
    "code": "CK",
    "dial_code": "+682"
  },
  {
    "name": "Costa Rica",
    "flag": "ğŸ‡¨ğŸ‡·",
    "code": "CR",
    "dial_code": "+506"
  },
  {
    "name": "CÃ´te d'Ivoire",
    "flag": "ğŸ‡¨ğŸ‡®",
    "code": "CI",
    "dial_code": "+225"
  },
  {
    "name": "Croatia",
    "flag": "ğŸ‡­ğŸ‡·",
    "code": "HR",
    "dial_code": "+385"
  },
  {
    "name": "Cuba",
    "flag": "ğŸ‡¨ğŸ‡º",
    "code": "CU",
    "dial_code": "+53"
  }
]


